{
  "type": "FeatureCollection",
  "features": [
    {
      "type": "Feature",
      "properties": {
        "norad_id": 46986,
        "name": "FENGYUN 1C DEB",
        "group": "fengyun-1c-debris",
        "lat": 76.99495021430523,
        "lon": -19.913877747170048,
        "alt_km": 746.7780414536455,
        "timestamp": "2025-12-21T09:37:22.945475+00:00",
        "meta_object_name": "FENGYUN 1C DEB",
        "meta_object_id": "1999-025EZL",
        "meta_epoch": "2025-12-18T08:14:14.980416",
        "meta_mean_motion": 14.47202038,
        "meta_eccentricity": 0.01048793,
        "meta_inclination": 98.2353,
        "meta_ra_of_asc_node": 15.9439,
        "meta_arg_of_pericenter": 194.7919,
        "meta_mean_anomaly": 165.0199,
        "meta_ephemeris_type": 0,
        "meta_classification_type": "U",
        "meta_norad_cat_id": 46986,
        "meta_element_set_no": 999,
        "meta_rev_at_epoch": 63481,
        "meta_bstar": 0.00036299025,
        "meta_mean_motion_dot": 1.373e-05,
        "meta_mean_motion_ddot": 0,
        "tle_line1": "1 46986U 99025EZL 25352.34322894  .00001373  00000+0  36299-3 0  9995",
        "tle_line2": "2 46986  98.2353  15.9439 0104879 194.7919 165.0199 14.47202038634819"
      },
      "geometry": {
        "type": "Point",
        "coordinates": [
          -19.913877747170048,
          76.99495021430523
        ]
      }
    },
    {
      "type": "Feature",
      "properties": {
        "norad_id": 46989,
        "name": "FENGYUN 1C DEB",
        "group": "fengyun-1c-debris",
        "lat": -34.82097077145092,
        "lon": -29.47795034691808,
        "alt_km": 996.0180373773301,
        "timestamp": "2025-12-21T09:37:22.945485+00:00",
        "meta_object_name": "FENGYUN 1C DEB",
        "meta_object_id": "1999-025EZP",
        "meta_epoch": "2025-12-16T05:50:42.467712",
        "meta_mean_motion": 13.79351889,
        "meta_eccentricity": 0.0241495,
        "meta_inclination": 99.5079,
        "meta_ra_of_asc_node": 152.0361,
        "meta_arg_of_pericenter": 327.932,
        "meta_mean_anomaly": 213.2299,
        "meta_ephemeris_type": 0,
        "meta_classification_type": "U",
        "meta_norad_cat_id": 46989,
        "meta_element_set_no": 999,
        "meta_rev_at_epoch": 71090,
        "meta_bstar": 0.0034367079,
        "meta_mean_motion_dot": 4.346e-05,
        "meta_mean_motion_ddot": 0,
        "tle_line1": "1 46989U 99025EZP 25350.24354708  .00004346  00000+0  34367-2 0  9990",
        "tle_line2": "2 46989  99.5079 152.0361 0241495 327.9320 213.2299 13.79351889710905"
      },
      "geometry": {
        "type": "Point",
        "coordinates": [
          -29.47795034691808,
          -34.82097077145092
        ]
      }
    },
    {
      "type": "Feature",
      "properties": {
        "norad_id": 46990,
        "name": "FENGYUN 1C DEB",
        "group": "fengyun-1c-debris",
        "lat": -70.55544661134827,
        "lon": -136.79942917953275,
        "alt_km": 886.7279747109542,
        "timestamp": "2025-12-21T09:37:22.945496+00:00",
        "meta_object_name": "FENGYUN 1C DEB",
        "meta_object_id": "1999-025EZQ",
        "meta_epoch": "2025-12-14T09:50:58.179840",
        "meta_mean_motion": 14.23869634,
        "meta_eccentricity": 0.03581836,
        "meta_inclination": 98.2322,
        "meta_ra_of_asc_node": 192.4277,
        "meta_arg_of_pericenter": 55.4999,
        "meta_mean_anomaly": 61.9058,
        "meta_ephemeris_type": 0,
        "meta_classification_type": "U",
        "meta_norad_cat_id": 46990,
        "meta_element_set_no": 999,
        "meta_rev_at_epoch": 8553,
        "meta_bstar": 0.002161109,
        "meta_mean_motion_dot": 9.626e-05,
        "meta_mean_motion_ddot": 0,
        "tle_line1": "1 46990U 99025EZQ 25348.41039560  .00009626  00000+0  21611-2 0  9998",
        "tle_line2": "2 46990  98.2322 192.4277 0358183  55.4999  61.9058 14.23869634 85533"
      },
      "geometry": {
        "type": "Point",
        "coordinates": [
          -136.79942917953275,
          -70.55544661134827
        ]
      }
    },
    {
      "type": "Feature",
      "properties": {
        "norad_id": 46992,
        "name": "FENGYUN 1C DEB",
        "group": "fengyun-1c-debris",
        "lat": -6.3952728640882235,
        "lon": -17.062356628147587,
        "alt_km": 936.7577404439244,
        "timestamp": "2025-12-21T09:37:22.945506+00:00",
        "meta_object_name": "FENGYUN 1C DEB",
        "meta_object_id": "1999-025EZS",
        "meta_epoch": "2025-12-19T18:13:25.191840",
        "meta_mean_motion": 14.00708006,
        "meta_eccentricity": 0.00721425,
        "meta_inclination": 98.901,
        "meta_ra_of_asc_node": 340.3322,
        "meta_arg_of_pericenter": 141.1765,
        "meta_mean_anomaly": 219.4614,
        "meta_ephemeris_type": 0,
        "meta_classification_type": "U",
        "meta_norad_cat_id": 46992,
        "meta_element_set_no": 999,
        "meta_rev_at_epoch": 61055,
        "meta_bstar": 0.00043037595,
        "meta_mean_motion_dot": 6.13e-06,
        "meta_mean_motion_ddot": 0,
        "tle_line1": "1 46992U 99025EZS 25353.75931935  .00000613  00000+0  43038-3 0  9995",
        "tle_line2": "2 46992  98.9010 340.3322 0072142 141.1765 219.4614 14.00708006610557"
      },
      "geometry": {
        "type": "Point",
        "coordinates": [
          -17.062356628147587,
          -6.3952728640882235
        ]
      }
    },
    {
      "type": "Feature",
      "properties": {
        "norad_id": 46993,
        "name": "FENGYUN 1C DEB",
        "group": "fengyun-1c-debris",
        "lat": -62.46029180331328,
        "lon": 130.16946143107623,
        "alt_km": 826.9160439166144,
        "timestamp": "2025-12-21T09:37:22.945516+00:00",
        "meta_object_name": "FENGYUN 1C DEB",
        "meta_object_id": "1999-025EZT",
        "meta_epoch": "2025-12-18T13:48:38.255328",
        "meta_mean_motion": 13.69154142,
        "meta_eccentricity": 0.02625123,
        "meta_inclination": 98.7233,
        "meta_ra_of_asc_node": 110.4847,
        "meta_arg_of_pericenter": 283.8917,
        "meta_mean_anomaly": 132.0062,
        "meta_ephemeris_type": 0,
        "meta_classification_type": "U",
        "meta_norad_cat_id": 46993,
        "meta_element_set_no": 999,
        "meta_rev_at_epoch": 60337,
        "meta_bstar": 0.00040493614,
        "meta_mean_motion_dot": 4.06e-06,
        "meta_mean_motion_ddot": 0,
        "tle_line1": "1 46993U 99025EZT 25352.57544277  .00000406  00000+0  40494-3 0  9997",
        "tle_line2": "2 46993  98.7233 110.4847 0262512 283.8917 132.0062 13.69154142603375"
      },
      "geometry": {
        "type": "Point",
        "coordinates": [
          130.16946143107623,
          -62.46029180331328
        ]
      }
    },
    {
      "type": "Feature",
      "properties": {
        "norad_id": 46995,
        "name": "FENGYUN 1C DEB",
        "group": "fengyun-1c-debris",
        "lat": 74.25169608895949,
        "lon": -70.85967145257993,
        "alt_km": 797.1797288678399,
        "timestamp": "2025-12-21T09:37:22.945526+00:00",
        "meta_object_name": "FENGYUN 1C DEB",
        "meta_object_id": "1999-025EZV",
        "meta_epoch": "2025-12-18T04:55:40.819584",
        "meta_mean_motion": 13.86383578,
        "meta_eccentricity": 0.01891743,
        "meta_inclination": 98.5952,
        "meta_ra_of_asc_node": 73.7691,
        "meta_arg_of_pericenter": 103.3728,
        "meta_mean_anomaly": 258.8595,
        "meta_ephemeris_type": 0,
        "meta_classification_type": "U",
        "meta_norad_cat_id": 46995,
        "meta_element_set_no": 999,
        "meta_rev_at_epoch": 60544,
        "meta_bstar": 0.001968191,
        "meta_mean_motion_dot": 2.586e-05,
        "meta_mean_motion_ddot": 0,
        "tle_line1": "1 46995U 99025EZV 25352.20533356  .00002586  00000+0  19682-2 0  9990",
        "tle_line2": "2 46995  98.5952  73.7691 0189174 103.3728 258.8595 13.86383578605443"
      },
      "geometry": {
        "type": "Point",
        "coordinates": [
          -70.85967145257993,
          74.25169608895949
        ]
      }
    },
    {
      "type": "Feature",
      "properties": {
        "norad_id": 46997,
        "name": "FENGYUN 1C DEB",
        "group": "fengyun-1c-debris",
        "lat": -75.38911841124052,
        "lon": 70.85644109414211,
        "alt_km": 790.0409177249667,
        "timestamp": "2025-12-21T09:37:22.945548+00:00",
        "meta_object_name": "FENGYUN 1C DEB",
        "meta_object_id": "1999-025EZX",
        "meta_epoch": "2025-12-14T20:44:05.032032",
        "meta_mean_motion": 14.28011803,
        "meta_eccentricity": 0.00246638,
        "meta_inclination": 98.5587,
        "meta_ra_of_asc_node": 29.1623,
        "meta_arg_of_pericenter": 329.7037,
        "meta_mean_anomaly": 205.3871,
        "meta_ephemeris_type": 0,
        "meta_classification_type": "U",
        "meta_norad_cat_id": 46997,
        "meta_element_set_no": 999,
        "meta_rev_at_epoch": 62481,
        "meta_bstar": 0.00094694744,
        "meta_mean_motion_dot": 2.314e-05,
        "meta_mean_motion_ddot": 0,
        "tle_line1": "1 46997U 99025EZX 25348.86394713  .00002314  00000+0  94695-3 0  9998",
        "tle_line2": "2 46997  98.5587  29.1623 0024663 329.7037 205.3871 14.28011803624819"
      },
      "geometry": {
        "type": "Point",
        "coordinates": [
          70.85644109414211,
          -75.38911841124052
        ]
      }
    }
  ]
}